IRIDIUM 26              
1 24903U 97043A   25185.17490058  .00000309  00000+0  97192-4 0  9999
2 24903  86.3958 103.4877 0002357  81.1110 279.0354 14.37156437459658
IRIDIUM 22              
1 24907U 97043E   25184.84003334  .00000253  00000+0  80470-4 0  9992
2 24907  86.3964 107.1824 0002184  83.4259 276.7187 14.35967165459169
DUMMY MASS 2            
1 24926U 97048B   25184.86928543  .00000339  00000+0  34918-4 0  9999
2 24926  86.3363 129.2284 0009850  96.9068 263.3277 14.86748932507624
IRIDIUM 29              
1 24944U 97051A   25185.13568413  .00000337  00000+0  10806-3 0  9997
2 24944  86.3979 136.7914 0002128  89.6970 270.4471 14.36479076455927
IRIDIUM 33              
1 24946U 97051C   25184.85716214  .00000270  00000+0  88241-4 0  9996
2 24946  86.3894 136.1697 0009125  36.9527 323.2296 14.34901012455148
